{
  "type": "FeatureCollection",
  "features": [
    {
      "type": "Feature",
      "properties": {
        "norad_id": 44624,
        "name": "EUTELSAT 5 WEST B (EGNOS/PRN 121)",
        "group": "gnss",
        "lat": -0.019830613768567484,
        "lon": -32.12027098459287,
        "alt_km": 35780.87582601236,
        "timestamp": "2025-12-09T16:56:36.818660+00:00",
        "meta_object_name": "EUTELSAT 5 WEST B (EGNOS/PRN 121)",
        "meta_object_id": "2019-067A",
        "meta_epoch": "2025-12-09T04:59:20.915808",
        "meta_mean_motion": 1.00271075,
        "meta_eccentricity": 0.0003516,
        "meta_inclination": 0.0644,
        "meta_ra_of_asc_node": 341.3724,
        "meta_arg_of_pericenter": 277.7318,
        "meta_mean_anomaly": 248.9352,
        "meta_ephemeris_type": 0,
        "meta_classification_type": "U",
        "meta_norad_cat_id": 44624,
        "meta_element_set_no": 999,
        "meta_rev_at_epoch": 2253,
        "meta_bstar": 0,
        "meta_mean_motion_dot": -4e-07,
        "meta_mean_motion_ddot": 0,
        "tle_line1": "1 44624U 19067A   25343.20788097 -.00000040  00000+0  00000+0 0  9994",
        "tle_line2": "2 44624   0.0644 341.3724 0003516 277.7318 248.9352  1.00271075 22538"
      },
      "geometry": {
        "type": "Point",
        "coordinates": [
          -32.12027098459287,
          -0.019830613768567484
        ]
      }
    },
    {
      "type": "Feature",
      "properties": {
        "norad_id": 44709,
        "name": "BEIDOU-3 IGSO-3 (C40)",
        "group": "gnss",
        "lat": 13.628979630288272,
        "lon": 93.20535214784698,
        "alt_km": 35626.576094236356,
        "timestamp": "2025-12-09T16:56:36.818676+00:00",
        "meta_object_name": "BEIDOU-3 IGSO-3 (C40)",
        "meta_object_id": "2019-073A",
        "meta_epoch": "2025-11-20T07:11:22.740000",
        "meta_mean_motion": 1.00250097,
        "meta_eccentricity": 0.0044538,
        "meta_inclination": 55.163,
        "meta_ra_of_asc_node": 283.159,
        "meta_arg_of_pericenter": 191.5856,
        "meta_mean_anomaly": 168.2409,
        "meta_ephemeris_type": 0,
        "meta_classification_type": "U",
        "meta_norad_cat_id": 44709,
        "meta_element_set_no": 999,
        "meta_rev_at_epoch": 2236,
        "meta_bstar": 0,
        "meta_mean_motion_dot": -2.06e-06,
        "meta_mean_motion_ddot": 0,
        "tle_line1": "1 44709U 19073A   25324.29956875 -.00000206  00000+0  00000+0 0  9998",
        "tle_line2": "2 44709  55.1630 283.1590 0044538 191.5856 168.2409  1.00250097 22360"
      },
      "geometry": {
        "type": "Point",
        "coordinates": [
          93.20535214784698,
          13.628979630288272
        ]
      }
    },
    {
      "type": "Feature",
      "properties": {
        "norad_id": 44793,
        "name": "BEIDOU-3 M22 (C44)",
        "group": "gnss",
        "lat": 48.159477194465886,
        "lon": 72.56788152669107,
        "alt_km": 21522.260236811453,
        "timestamp": "2025-12-09T16:56:36.818690+00:00",
        "meta_object_name": "BEIDOU-3 M22 (C44)",
        "meta_object_id": "2019-078A",
        "meta_epoch": "2025-12-09T00:00:40.080096",
        "meta_mean_motion": 1.86231694,
        "meta_eccentricity": 0.00056078,
        "meta_inclination": 54.1119,
        "meta_ra_of_asc_node": 306.5176,
        "meta_arg_of_pericenter": 23.0098,
        "meta_mean_anomaly": 337.0045,
        "meta_ephemeris_type": 0,
        "meta_classification_type": "U",
        "meta_norad_cat_id": 44793,
        "meta_element_set_no": 999,
        "meta_rev_at_epoch": 4110,
        "meta_bstar": 0,
        "meta_mean_motion_dot": -7.5e-07,
        "meta_mean_motion_ddot": 0,
        "tle_line1": "1 44793U 19078A   25343.00046389 -.00000075  00000+0  00000+0 0  9990",
        "tle_line2": "2 44793  54.1119 306.5176 0005607  23.0098 337.0045  1.86231694 41106"
      },
      "geometry": {
        "type": "Point",
        "coordinates": [
          72.56788152669107,
          48.159477194465886
        ]
      }
    },
    {
      "type": "Feature",
      "properties": {
        "norad_id": 44794,
        "name": "BEIDOU-3 M21 (C43)",
        "group": "gnss",
        "lat": 16.69760298045259,
        "lon": -41.014160761222286,
        "alt_km": 21515.9019523428,
        "timestamp": "2025-12-09T16:56:36.818702+00:00",
        "meta_object_name": "BEIDOU-3 M21 (C43)",
        "meta_object_id": "2019-078B",
        "meta_epoch": "2025-12-09T03:18:47.736000",
        "meta_mean_motion": 1.86227438,
        "meta_eccentricity": 0.0003852,
        "meta_inclination": 54.0853,
        "meta_ra_of_asc_node": 306.4778,
        "meta_arg_of_pericenter": 10.0441,
        "meta_mean_anomaly": 349.953,
        "meta_ephemeris_type": 0,
        "meta_classification_type": "U",
        "meta_norad_cat_id": 44794,
        "meta_element_set_no": 999,
        "meta_rev_at_epoch": 4111,
        "meta_bstar": 0,
        "meta_mean_motion_dot": -7.6e-07,
        "meta_mean_motion_ddot": 0,
        "tle_line1": "1 44794U 19078B   25343.13805250 -.00000076  00000+0  00000+0 0  9996",
        "tle_line2": "2 44794  54.0853 306.4778 0003852  10.0441 349.9530  1.86227438 41119"
      },
      "geometry": {
        "type": "Point",
        "coordinates": [
          -41.014160761222286,
          16.69760298045259
        ]
      }
    },
    {
      "type": "Feature",
      "properties": {
        "norad_id": 44850,
        "name": "COSMOS 2544 (759)",
        "group": "gnss",
        "lat": -16.27419809087369,
        "lon": -92.28079667508804,
        "alt_km": 19110.647211323827,
        "timestamp": "2025-12-09T16:56:36.818712+00:00",
        "meta_object_name": "COSMOS 2544 (759)",
        "meta_object_id": "2019-088A",
        "meta_epoch": "2025-12-09T10:44:40.842816",
        "meta_mean_motion": 2.13101756,
        "meta_eccentricity": 0.0013649,
        "meta_inclination": 65.4583,
        "meta_ra_of_asc_node": 80.0686,
        "meta_arg_of_pericenter": 249.1242,
        "meta_mean_anomaly": 110.7462,
        "meta_ephemeris_type": 0,
        "meta_classification_type": "U",
        "meta_norad_cat_id": 44850,
        "meta_element_set_no": 999,
        "meta_rev_at_epoch": 4667,
        "meta_bstar": 0,
        "meta_mean_motion_dot": -1.3e-07,
        "meta_mean_motion_ddot": 0,
        "tle_line1": "1 44850U 19088A   25343.44769494 -.00000013  00000+0  00000+0 0  9994",
        "tle_line2": "2 44850  65.4583  80.0686 0013649 249.1242 110.7462  2.13101756 46679"
      },
      "geometry": {
        "type": "Point",
        "coordinates": [
          -92.28079667508804,
          -16.27419809087369
        ]
      }
    },
    {
      "type": "Feature",
      "properties": {
        "norad_id": 44864,
        "name": "BEIDOU-3 M19 (C41)",
        "group": "gnss",
        "lat": -29.56440623258537,
        "lon": -88.79776326821265,
        "alt_km": 21514.145381250775,
        "timestamp": "2025-12-09T16:56:36.818726+00:00",
        "meta_object_name": "BEIDOU-3 M19 (C41)",
        "meta_object_id": "2019-090A",
        "meta_epoch": "2025-12-09T13:03:36.527328",
        "meta_mean_motion": 1.86230657,
        "meta_eccentricity": 0.0017895,
        "meta_inclination": 56.3907,
        "meta_ra_of_asc_node": 69.0668,
        "meta_arg_of_pericenter": 285.5647,
        "meta_mean_anomaly": 182.4392,
        "meta_ephemeris_type": 0,
        "meta_classification_type": "U",
        "meta_norad_cat_id": 44864,
        "meta_element_set_no": 999,
        "meta_rev_at_epoch": 4070,
        "meta_bstar": 0,
        "meta_mean_motion_dot": -4.9e-07,
        "meta_mean_motion_ddot": 0,
        "tle_line1": "1 44864U 19090A   25343.54417277 -.00000049  00000+0  00000+0 0  9991",
        "tle_line2": "2 44864  56.3907  69.0668 0017895 285.5647 182.4392  1.86230657 40708"
      },
      "geometry": {
        "type": "Point",
        "coordinates": [
          -88.79776326821265,
          -29.56440623258537
        ]
      }
    },
    {
      "type": "Feature",
      "properties": {
        "norad_id": 44865,
        "name": "BEIDOU-3 M20 (C42)",
        "group": "gnss",
        "lat": -42.295222353727105,
        "lon": 31.936295811049398,
        "alt_km": 21492.048205326097,
        "timestamp": "2025-12-09T16:56:36.818737+00:00",
        "meta_object_name": "BEIDOU-3 M20 (C42)",
        "meta_object_id": "2019-090B",
        "meta_epoch": "2025-12-09T06:01:46.671168",
        "meta_mean_motion": 1.86231243,
        "meta_eccentricity": 0.0014851,
        "meta_inclination": 56.3923,
        "meta_ra_of_asc_node": 69.1112,
        "meta_arg_of_pericenter": 298.012,
        "meta_mean_anomaly": 63.2082,
        "meta_ephemeris_type": 0,
        "meta_classification_type": "U",
        "meta_norad_cat_id": 44865,
        "meta_element_set_no": 999,
        "meta_rev_at_epoch": 4068,
        "meta_bstar": 0,
        "meta_mean_motion_dot": -4.8e-07,
        "meta_mean_motion_ddot": 0,
        "tle_line1": "1 44865U 19090B   25343.25123462 -.00000048  00000+0  00000+0 0  9999",
        "tle_line2": "2 44865  56.3923  69.1112 0014851 298.0120  63.2082  1.86231243 40687"
      },
      "geometry": {
        "type": "Point",
        "coordinates": [
          31.936295811049398,
          -42.295222353727105
        ]
      }
    }
  ]
}